NORAD_CAT_ID,OBJECT_NAME,OBJECT_TYPE,EPOCH,MEAN_MOTION,ECCENTRICITY,INCLINATION,RA_OF_ASC_NODE,ARG_OF_PERICENTER,MEAN_ANOMALY,BSTAR,MEAN_MOTION_DOT,MEAN_MOTION_DDOT,TLE_LINE0,TLE_LINE1,TLE_LINE2,SEMIMAJOR_AXIS,PERIOD,APOGEE,PERIGEE,DECAYED
53997.0,STARLINK-5130,PAYLOAD,2022-12-11 06:00:00,15.49881949,0.000359,53.2174,124.703,284.999,81.5032,0.00014012,7.507e-05,0.0,0 STARLINK-5130,1 53997U 22125AK  22345.25001157  .00007507  00000-0  14012-3 0  9992,2 53997  53.2174 124.7030 0003590 284.9990  81.5032 15.49881949 10819,6795.208000000001,92.91,419.513,414.634,0.0
53997.0,STARLINK-5130,PAYLOAD,2022-12-11 14:00:01,15.49972667,0.0001654,53.2163,123.113,31.8775,35.7318,-0.012853,-0.00672531,0.0,0 STARLINK-5130,1 53997U 22125AK  22345.58334491 -.00672531  00000-0 -12853-1 0  9994,2 53997  53.2163 123.1130 0001654  31.8775  35.7318 15.49972667 10861,6794.943,92.905,417.932,415.684,0.0
53997.0,STARLINK-5130,PAYLOAD,2022-12-11 22:00:01,15.49738016,0.0002061,53.2172,121.5185,26.955,101.367,-0.016397,-0.00845847,0.0,0 STARLINK-5130,1 53997U 22125AK  22345.91668981 -.00845847  00000-0 -16397-1 0  9994,2 53997  53.2172 121.5185 0002061  26.9550 101.3670 15.49738016 10917,6795.629,92.919,418.894,416.093,0.0
53997.0,STARLINK-5130,PAYLOAD,2022-12-12 14:00:01,15.4848103,0.0005349,53.2174,118.3359,274.7492,333.4825,-0.018591,-0.00924395,0.0,0 STARLINK-5130,1 53997U 22125AK  22346.58334491 -.00924395  00000-0 -18591-1 0  9998,2 53997  53.2174 118.3359 0005349 274.7492 333.4825 15.48481030 11018,6799.306,92.994,424.8080000000001,417.534,0.0
53997.0,STARLINK-5130,PAYLOAD,2022-12-12 22:00:00,15.47506975,0.0001593,53.2162,116.7467,19.1985,288.0173,-0.0093362,-0.00460215,0.0,0 STARLINK-5130,1 53997U 22125AK  22346.91667824 -.00460215  00000-0 -93362-2 0  9990,2 53997  53.2162 116.7467 0001593  19.1985 288.0173 15.47506975 11063,6802.159000000002,93.053,425.107,422.94,0.0
53997.0,STARLINK-5130,PAYLOAD,2022-12-13 06:00:00,15.47173369,0.0001686999999999,53.2171,115.1586,31.57,333.5292,-0.019331,-0.00917576,0.0,0 STARLINK-5130,1 53997U 22125AK  22347.25001157 -.00917576  00000-0 -19331-1 0  9999,2 53997  53.2171 115.1586 0001687  31.5700 333.5292 15.47173369 11127,6803.137,93.073,426.149,423.854,0.0
53997.0,STARLINK-5130,PAYLOAD,2022-12-13 12:00:00,15.46520542,0.0001842,53.2173,113.9709,37.4886,280.6551,-0.008903,-0.00425958,0.0,0 STARLINK-5130,1 53997U 22125AK  22347.50001157 -.00425958  00000-0 -89030-2 0  9999,2 53997  53.2173 113.9709 0001842  37.4886 280.6551 15.46520542 11156,6805.051,93.112,428.169,425.662,0.0
53997.0,STARLINK-5130,PAYLOAD,2022-12-13 22:00:00,15.45881506,0.0001052,53.2172,111.9898,279.7086,199.1206,-0.020552,-0.00931369,0.0,0 STARLINK-5130,1 53997U 22125AK  22347.91667824 -.00931369  00000-0 -20552-1 0  9994,2 53997  53.2172 111.9898 0001052 279.7086 199.1206 15.45881506 11226,6806.926,93.151,429.507,428.075,0.0
53997.0,STARLINK-5130,PAYLOAD,2022-12-14 14:00:01,15.44568476,0.0001524,53.217,108.8263,53.8744,175.5644,-0.021053,-0.0091355,0.0,0 STARLINK-5130,1 53997U 22125AK  22348.58334491 -.00913550  00000-0 -21053-1 0  9998,2 53997  53.2170 108.8263 0001524  53.8744 175.5644 15.44568476  1300,6810.783,93.23,433.686,431.61,0.0
53997.0,STARLINK-5130,PAYLOAD,2022-12-14 22:00:00,15.43934968,0.0001608,53.2166,107.2471,37.711,245.8491,-0.022161,-0.00938804,0.0,0 STARLINK-5130,1 53997U 22125AK  22348.91667824 -.00938804  00000-0 -22161-1 0  9994,2 53997  53.2166 107.2471 0001608  37.7110 245.8491 15.43934968  1303,6812.646,93.268,435.607,433.416,0.0
53997.0,STARLINK-5130,PAYLOAD,2022-12-15 06:00:00,15.43265739,0.0001504,53.2173,105.6666,40.7915,296.1257,-0.021986,-0.0091265,0.0,0 STARLINK-5130,1 53997U 22125AK  22349.25001157 -.00912650  00000-0 -21986-1 0  9998,2 53997  53.2173 105.6666 0001504  40.7915 296.1257 15.43265739 11427,6814.616,93.309,437.506,435.456,0.0
53997.0,STARLINK-5130,PAYLOAD,2022-12-15 14:00:01,15.42617571,0.0001825,53.2175,104.0919,31.5731,357.9068,-0.022582,-0.00916749,0.0,0 STARLINK-5130,1 53997U 22125AK  22349.58334491 -.00916749  00000-0 -22582-1 0  9990,2 53997  53.2175 104.0919 0001825  31.5731 357.9068 15.42617571  1309,6816.524,93.348,439.633,437.145,0.0
53997.0,STARLINK-5130,PAYLOAD,2022-12-15 22:00:00,15.41965429,0.0001887,53.2172,102.5166,30.6597,50.6034,-0.023021,-0.00914455,0.0,0 STARLINK-5130,1 53997U 22125AK  22349.91667824 -.00914455  00000-0 -23021-1 0  9997,2 53997  53.2172 102.5166 0001887  30.6597  50.6034 15.41965429  1308,6818.446,93.387,441.598,439.025,0.0
53997.0,STARLINK-5130,PAYLOAD,2022-12-16 06:00:00,15.41314765,0.0001524,53.2175,100.9418,49.7597,82.5046,-0.023568,-0.0091576,0.0,0 STARLINK-5130,1 53997U 22125AK  22350.25001157 -.00915760  00000-0 -23568-1 0  9993,2 53997  53.2175 100.9418 0001524  49.7597  82.5046 15.41314765 11581,6820.365,93.427,443.269,441.191,0.0
53997.0,STARLINK-5130,PAYLOAD,2022-12-16 14:00:01,15.40631285,0.0001698,53.217,99.3723,46.1285,136.3682,-0.022816,-0.0087031,0.0,0 STARLINK-5130,1 53997U 22125AK  22350.58334491 -.00870310  00000-0 -22816-1 0  9995,2 53997  53.2170  99.3723 0001698  46.1285 136.3682 15.40631285  1304,6822.382,93.468,445.405,443.089,0.0
53997.0,STARLINK-5130,PAYLOAD,2022-12-16 22:00:00,15.4001349,0.0001608,53.2172,97.8011,46.6063,185.3108,-0.024638,-0.0091662,0.0,0 STARLINK-5130,1 53997U 22125AK  22350.91667824 -.00916620  00000-0 -24638-1 0  9990,2 53997  53.2172  97.8011 0001608  46.6063 185.3108 15.40013490  1308,6824.206,93.506,447.169,444.974,0.0
53997.0,STARLINK-5130,PAYLOAD,2022-12-17 06:00:00,15.39360241,0.0001469,53.2174,96.2309,50.6125,229.9596,-0.025058,-0.00912606,0.0,0 STARLINK-5130,1 53997U 22125AK  22351.25001157 -.00912606  00000-0 -25058-1 0  9996,2 53997  53.2174  96.2309 0001469  50.6125 229.9596 15.39360241 11733,6826.137,93.545,449.005,446.999,0.0
53997.0,STARLINK-5130,PAYLOAD,2022-12-17 14:00:01,15.38718487,0.0001503,53.2169,94.6661,49.8346,278.6674,-0.026014,-0.00926364,0.0,0 STARLINK-5130,1 53997U 22125AK  22351.58335648 -.00926364  00000-0 -26014-1 0  9996,2 53997  53.2169  94.6661 0001503  49.8346 278.6674 15.38718487  1302,6828.035,93.584,450.926,448.874,0.0
53997.0,STARLINK-5130,PAYLOAD,2022-12-17 22:00:00,15.38052186,0.0001742,53.2164,93.1001,33.0037,342.5305,-0.025911,-0.00904654,0.0,0 STARLINK-5130,1 53997U 22125AK  22351.91667824 -.00904654  00000-0 -25911-1 0  9990,2 53997  53.2164  93.1001 0001742  33.0037 342.5305 15.38052186  1305,6830.007,93.625,453.061,450.682,0.0
53997.0,STARLINK-5130,PAYLOAD,2022-12-18 06:00:02,15.37406956,0.0001744,53.2174,91.534,35.2892,26.6138,-0.026695,-0.0091193,0.0,0 STARLINK-5130,1 53997U 22125AK  22352.25002315 -.00911930  00000-0 -26695-1 0  9991,2 53997  53.2174  91.5340 0001744  35.2892  26.6138 15.37406956 11895,6831.918000000002,93.664,454.974,452.591,0.0
53997.0,STARLINK-5130,PAYLOAD,2022-12-18 14:00:01,15.36758122,0.0001928,53.2173,89.9736,34.6264,72.7349,-0.02738,-0.00915501,0.0,0 STARLINK-5130,1 53997U 22125AK  22352.58334491 -.00915501  00000-0 -27380-1 0  9990,2 53997  53.2173  89.9736 0001928  34.6264  72.7349 15.36758122  1309,6833.84,93.704,457.023,454.388,0.0
53997.0,STARLINK-5130,PAYLOAD,2022-12-18 22:00:00,15.36105783,0.0001921,53.2172,88.4117,34.8392,117.2653,-0.027884,-0.00913053,0.0,0 STARLINK-5130,1 53997U 22125AK  22352.91667824 -.00913053  00000-0 -27884-1 0  9995,2 53997  53.2172  88.4117 0001921  34.8392 117.2653 15.36105783  1304,6835.775,93.744,458.953,456.327,0.0
53997.0,STARLINK-5130,PAYLOAD,2022-12-19 04:00:00,15.35617042,0.0001819,53.2173,87.2408,34.0209,61.1278,-0.028327,-0.00913012,0.0,0 STARLINK-5130,1 53997U 22125AK  22353.16667824 -.00913012  00000-0 -28327-1 0  9991,2 53997  53.2173  87.2408 0001819  34.0209  61.1278 15.35617042 12037,6837.225,93.773,460.334,457.847,0.0
53997.0,STARLINK-5130,PAYLOAD,2022-12-19 12:00:00,15.34965523,0.0001968,53.2172,85.6841,35.1063,103.4146,-0.02888,-0.0091167,0.0,0 STARLINK-5130,1 53997U 22125AK  22353.50001157 -.00911670  00000-0 -28880-1 0  9992,2 53997  53.2172  85.6841 0001968  35.1063 103.4146 15.34965523  1305,6839.16,93.813,462.371,459.679,0.0
53997.0,STARLINK-5130,PAYLOAD,2022-12-19 22:00:00,15.341544400000002,0.0001756,53.2173,83.7379,37.0324,244.604,-0.029794,-0.00915975,0.0,0 STARLINK-5130,1 53997U 22125AK  22353.91667824 -.00915975  00000-0 -29794-1 0  9993,2 53997  53.2173  83.7379 0001756  37.0324 244.6040 15.34154440  1306,6841.57,93.863,464.637,462.234,0.0
53997.0,STARLINK-5130,PAYLOAD,2022-12-20 06:00:00,15.33501639,0.0001734,53.2168,82.1826,35.3147,287.9349,-0.030252,-0.00911306,0.0,0 STARLINK-5130,1 53997U 22125AK  22354.25001157 -.00911306  00000-0 -30252-1 0  9997,2 53997  53.2168  82.1826 0001734  35.3147 287.9349 15.33501639 12196,6843.512,93.903,466.56300000000016,464.19,0.0
53997.0,STARLINK-5130,PAYLOAD,2022-12-20 14:00:01,15.32850056,0.0001496999999999,53.2172,80.6309,43.8402,320.24,-0.030915,-0.00912093,0.0,0 STARLINK-5130,1 53997U 22125AK  22354.58334491 -.00912093  00000-0 -30915-1 0  9993,2 53997  53.2172  80.6309 0001497  43.8402 320.2400 15.32850056  1303,6845.451,93.943,468.341,466.291,0.0
53997.0,STARLINK-5130,PAYLOAD,2022-12-21 06:00:00,15.31547463,0.0001717,53.2174,77.5267,39.6226,43.7733,-0.032131,-0.00910023,0.0,0 STARLINK-5130,1 53997U 22125AK  22355.25001157 -.00910023  00000-0 -32131-1 0  9991,2 53997  53.2174  77.5267 0001717  39.6226  43.7733 15.31547463 12352,6849.331999999999,94.023,472.37300000000016,470.021,0.0
53997.0,STARLINK-5130,PAYLOAD,2022-12-21 14:00:01,15.30898022,0.0001866,53.2175,75.9802,38.7085,83.1696,-0.03291,-0.00913055,0.0,0 STARLINK-5130,1 53997U 22125AK  22355.58334491 -.00913055  00000-0 -32910-1 0  9990,2 53997  53.2175  75.9802 0001866  38.7085  83.1696 15.30898022  1306,6851.269,94.062,474.412,471.855,0.0
